CCSDS_OMM_VERS = 2.0
CREATION_DATE  = 
ORIGINATOR     = 

OBJECT_NAME    = AQUA
OBJECT_ID      = 2002-022A
CENTER_NAME    = EARTH
REF_FRAME      = TEME
TIME_SYSTEM    = UTC
MEAN_ELEMENT_THEORY = SGP/SGP4

EPOCH          = 2026-04-05T20:20:18.864384
MEAN_MOTION    = 14.62044454
ECCENTRICITY   = .0001445
INCLINATION    = 98.4221
RA_OF_ASC_NODE = 63.7168
ARG_OF_PERICENTER = 114.5211
MEAN_ANOMALY   = 266.6869

EPHEMERIS_TYPE = 0
CLASSIFICATION_TYPE = U
NORAD_CAT_ID   = 27424
ELEMENT_SET_NO = 999
REV_AT_EPOCH   = 27270
BSTAR          = .29976E-3
MEAN_MOTION_DOT = .1455E-4
MEAN_MOTION_DDOT = 0

CCSDS_OMM_VERS = 2.0
CREATION_DATE  = 
ORIGINATOR     = 

OBJECT_NAME    = CZ-4B R/B
OBJECT_ID      = 2002-024C
CENTER_NAME    = EARTH
REF_FRAME      = TEME
TIME_SYSTEM    = UTC
MEAN_ELEMENT_THEORY = SGP/SGP4

EPOCH          = 2026-04-05T17:57:51.355584
MEAN_MOTION    = 14.14552904
ECCENTRICITY   = .0049212
INCLINATION    = 98.8779
RA_OF_ASC_NODE = 149.0115
ARG_OF_PERICENTER = 306.8673
MEAN_ANOMALY   = 162.1142

EPHEMERIS_TYPE = 0
CLASSIFICATION_TYPE = U
NORAD_CAT_ID   = 27432
ELEMENT_SET_NO = 999
REV_AT_EPOCH   = 23306
BSTAR          = .56126E-4
MEAN_MOTION_DOT = .64E-6
MEAN_MOTION_DDOT = 0

CCSDS_OMM_VERS = 2.0
CREATION_DATE  = 
ORIGINATOR     = 

OBJECT_NAME    = MIDORI II (ADEOS-II)
OBJECT_ID      = 2002-056A
CENTER_NAME    = EARTH
REF_FRAME      = TEME
TIME_SYSTEM    = UTC
MEAN_ELEMENT_THEORY = SGP/SGP4

EPOCH          = 2026-04-05T19:48:29.452896
MEAN_MOTION    = 14.29307387
ECCENTRICITY   = .0000319
INCLINATION    = 98.7816
RA_OF_ASC_NODE = 54.4987
ARG_OF_PERICENTER = 23.0104
MEAN_ANOMALY   = 337.1091

EPHEMERIS_TYPE = 0
CLASSIFICATION_TYPE = U
NORAD_CAT_ID   = 27597
ELEMENT_SET_NO = 999
REV_AT_EPOCH   = 21417
BSTAR          = .18737E-3
MEAN_MOTION_DOT = .431E-5
MEAN_MOTION_DDOT = 0

CCSDS_OMM_VERS = 2.0
CREATION_DATE  = 
ORIGINATOR     = 

OBJECT_NAME    = H-2A R/B
OBJECT_ID      = 2002-056E
CENTER_NAME    = EARTH
REF_FRAME      = TEME
TIME_SYSTEM    = UTC
MEAN_ELEMENT_THEORY = SGP/SGP4

EPOCH          = 2026-04-05T18:49:55.174368
MEAN_MOTION    = 14.33781205
ECCENTRICITY   = .0071413
INCLINATION    = 98.3250
RA_OF_ASC_NODE = 55.1266
ARG_OF_PERICENTER = 80.9928
MEAN_ANOMALY   = 341.0762

EPHEMERIS_TYPE = 0
CLASSIFICATION_TYPE = U
NORAD_CAT_ID   = 27601
ELEMENT_SET_NO = 999
REV_AT_EPOCH   = 21799
BSTAR          = .17681E-3
MEAN_MOTION_DOT = .464E-5
MEAN_MOTION_DDOT = 0

CCSDS_OMM_VERS = 2.0
CREATION_DATE  = 
ORIGINATOR     = 

OBJECT_NAME    = CZ-4B R/B
OBJECT_ID      = 2003-049C
CENTER_NAME    = EARTH
REF_FRAME      = TEME
TIME_SYSTEM    = UTC
MEAN_ELEMENT_THEORY = SGP/SGP4

EPOCH          = 2026-04-05T13:07:09.731424
MEAN_MOTION    = 14.55045925
ECCENTRICITY   = .0048731
INCLINATION    = 98.6899
RA_OF_ASC_NODE = 91.5099
ARG_OF_PERICENTER = 148.5823
MEAN_ANOMALY   = 211.8300

EPHEMERIS_TYPE = 0
CLASSIFICATION_TYPE = U
NORAD_CAT_ID   = 28059
ELEMENT_SET_NO = 999
REV_AT_EPOCH   = 19050
BSTAR          = .12705E-3
MEAN_MOTION_DOT = .505E-5
MEAN_MOTION_DDOT = 0

CCSDS_OMM_VERS = 2.0
CREATION_DATE  = 
ORIGINATOR     = 

OBJECT_NAME    = CZ-2C R/B
OBJECT_ID      = 2004-012C
CENTER_NAME    = EARTH
REF_FRAME      = TEME
TIME_SYSTEM    = UTC
MEAN_ELEMENT_THEORY = SGP/SGP4

EPOCH          = 2026-04-05T18:18:57.260736
MEAN_MOTION    = 15.68061193
ECCENTRICITY   = .0013647
INCLINATION    = 97.7158
RA_OF_ASC_NODE = 163.6823
ARG_OF_PERICENTER = 204.4828
MEAN_ANOMALY   = 155.5786

EPHEMERIS_TYPE = 0
CLASSIFICATION_TYPE = U
NORAD_CAT_ID   = 28222
ELEMENT_SET_NO = 999
REV_AT_EPOCH   = 20851
BSTAR          = .64531E-3
MEAN_MOTION_DOT = .72251E-3
MEAN_MOTION_DDOT = 0

CCSDS_OMM_VERS = 2.0
CREATION_DATE  = 
ORIGINATOR     = 

OBJECT_NAME    = SL-16 R/B
OBJECT_ID      = 2004-021B
CENTER_NAME    = EARTH
REF_FRAME      = TEME
TIME_SYSTEM    = UTC
MEAN_ELEMENT_THEORY = SGP/SGP4

EPOCH          = 2026-04-05T16:21:11.522304
MEAN_MOTION    = 14.14600920
ECCENTRICITY   = .0005501
INCLINATION    = 71.0013
RA_OF_ASC_NODE = 175.8504
ARG_OF_PERICENTER = 335.6750
MEAN_ANOMALY   = 24.4111

EPHEMERIS_TYPE = 0
CLASSIFICATION_TYPE = U
NORAD_CAT_ID   = 28353
ELEMENT_SET_NO = 999
REV_AT_EPOCH   = 12665
BSTAR          = .21909E-3
MEAN_MOTION_DOT = .373E-5
MEAN_MOTION_DDOT = 0

CCSDS_OMM_VERS = 2.0
CREATION_DATE  = 
ORIGINATOR     = 

OBJECT_NAME    = CZ-4B R/B
OBJECT_ID      = 2004-035C
CENTER_NAME    = EARTH
REF_FRAME      = TEME
TIME_SYSTEM    = UTC
MEAN_ELEMENT_THEORY = SGP/SGP4

EPOCH          = 2026-04-05T16:05:46.377888
MEAN_MOTION    = 15.29570637
ECCENTRICITY   = .003039
INCLINATION    = 97.3448
RA_OF_ASC_NODE = 129.5920
ARG_OF_PERICENTER = 230.5913
MEAN_ANOMALY   = 129.2636

EPHEMERIS_TYPE = 0
CLASSIFICATION_TYPE = U
NORAD_CAT_ID   = 28415
ELEMENT_SET_NO = 999
REV_AT_EPOCH   = 18403
BSTAR          = .31102E-3
MEAN_MOTION_DOT = .8962E-4
MEAN_MOTION_DDOT = 0

CCSDS_OMM_VERS = 2.0
CREATION_DATE  = 
ORIGINATOR     = 

OBJECT_NAME    = CZ-2C R/B
OBJECT_ID      = 2004-046B
CENTER_NAME    = EARTH
REF_FRAME      = TEME
TIME_SYSTEM    = UTC
MEAN_ELEMENT_THEORY = SGP/SGP4

EPOCH          = 2026-04-05T18:16:32.495808
MEAN_MOTION    = 14.27003473
ECCENTRICITY   = .0140589
INCLINATION    = 98.1975
RA_OF_ASC_NODE = 9.0585
ARG_OF_PERICENTER = 74.9436
MEAN_ANOMALY   = 286.7254

EPHEMERIS_TYPE = 0
CLASSIFICATION_TYPE = U
NORAD_CAT_ID   = 28480
ELEMENT_SET_NO = 999
REV_AT_EPOCH   = 11236
BSTAR          = .11475E-3
MEAN_MOTION_DOT = .27E-5
MEAN_MOTION_DDOT = 0

CCSDS_OMM_VERS = 2.0
CREATION_DATE  = 
ORIGINATOR     = 

OBJECT_NAME    = ARIANE 5 R/B
OBJECT_ID      = 2004-049H
CENTER_NAME    = EARTH
REF_FRAME      = TEME
TIME_SYSTEM    = UTC
MEAN_ELEMENT_THEORY = SGP/SGP4

EPOCH          = 2026-04-05T10:40:36.043968
MEAN_MOTION    = 14.85320748
ECCENTRICITY   = .00828136
INCLINATION    = 98.2666
RA_OF_ASC_NODE = 264.9111
ARG_OF_PERICENTER = 264.2866
MEAN_ANOMALY   = 94.8901

EPHEMERIS_TYPE = 0
CLASSIFICATION_TYPE = U
NORAD_CAT_ID   = 28499
ELEMENT_SET_NO = 999
REV_AT_EPOCH   = 14976
BSTAR          = .15095114E-3
MEAN_MOTION_DOT = .1313E-4
MEAN_MOTION_DDOT = 0

CCSDS_OMM_VERS = 2.0
CREATION_DATE  = 
ORIGINATOR     = 

OBJECT_NAME    = CZ-2D R/B
OBJECT_ID      = 2005-024B
CENTER_NAME    = EARTH
REF_FRAME      = TEME
TIME_SYSTEM    = UTC
MEAN_ELEMENT_THEORY = SGP/SGP4

EPOCH          = 2026-04-05T13:29:31.836192
MEAN_MOTION    = 15.62803961
ECCENTRICITY   = .0001835
INCLINATION    = 97.3565
RA_OF_ASC_NODE = 111.7419
ARG_OF_PERICENTER = 270.7702
MEAN_ANOMALY   = 89.3346

EPHEMERIS_TYPE = 0
CLASSIFICATION_TYPE = U
NORAD_CAT_ID   = 28738
ELEMENT_SET_NO = 999
REV_AT_EPOCH   = 14397
BSTAR          = .57455E-3
MEAN_MOTION_DOT = .51811E-3
MEAN_MOTION_DDOT = 0

CCSDS_OMM_VERS = 2.0
CREATION_DATE  = 
ORIGINATOR     = 

OBJECT_NAME    = ALOS (DAICHI)
OBJECT_ID      = 2006-002A
CENTER_NAME    = EARTH
REF_FRAME      = TEME
TIME_SYSTEM    = UTC
MEAN_ELEMENT_THEORY = SGP/SGP4

EPOCH          = 2026-04-05T20:51:24.526368
MEAN_MOTION    = 14.69900381
ECCENTRICITY   = .0001211
INCLINATION    = 98.1264
RA_OF_ASC_NODE = 51.6978
ARG_OF_PERICENTER = 115.6099
MEAN_ANOMALY   = 244.5232

EPHEMERIS_TYPE = 0
CLASSIFICATION_TYPE = U
NORAD_CAT_ID   = 28931
ELEMENT_SET_NO = 999
REV_AT_EPOCH   = 7747
BSTAR          = .30681E-3
MEAN_MOTION_DOT = .1786E-4
MEAN_MOTION_DDOT = 0

